IRIDIUM 33 DEB          
1 34487U 97051GC  26064.23640389  .00000919  00000+0  26518-3 0  9994
2 34487  86.3483 336.8757 0029400 214.7933 301.5186 14.43373555894389
IRIDIUM 33 DEB          
1 34488U 97051GD  26053.04643645  .01238203  00000+0  64727-2 0  9993
2 34488  86.3081 269.5420 0004770  70.8002 289.3788 15.78089963903416
IRIDIUM 33 DEB          
1 34492U 97051GH  26063.61481960  .00016229  00000+0  54593-2 0  9993
2 34492  86.4704 301.4920 0186682 335.9827  51.1154 14.27635689862262
IRIDIUM 33 DEB          
1 34497U 97051GN  26064.14091532  .00002529  00000+0  98079-3 0  9995
2 34497  86.2808  17.1813 0082046  72.9678 308.7481 14.27761609880595
IRIDIUM 33 DEB          
1 34508U 97051GZ  26063.95391588  .00004488  00000+0  14144-2 0  9996
2 34508  86.3655  67.7455 0061752 263.6500  95.7663 14.39090614884915
IRIDIUM 33 DEB          
1 34521U 97051HN  26064.21810478  .00009567  00000+0  17974-2 0  9992
2 34521  86.3836 354.2083 0004881  19.5064 340.6335 14.64586755896796
IRIDIUM 33 DEB          
1 34525U 97051HS  26064.29838472  .00001861  00000+0  54837-3 0  9997
2 34525  86.3769  11.5932 0004663 149.9676  12.5702 14.43159737892787
IRIDIUM 33 DEB          
1 34529U 97051HW  26064.28362281  .00000931  00000+0  28518-3 0  9994
2 34529  86.3692   0.2249 0003234 310.4858  49.6059 14.40731392893307
IRIDIUM 33 DEB          
1 34538U 97051JF  26064.21354935  .00003628  00000+0  10641-2 0  9997
2 34538  86.2798 329.4341 0036535  53.1181  99.4793 14.43250851889450
IRIDIUM 33 DEB          
1 34540U 97051JH  26064.03269747  .00011140  00000+0  15631-2 0  9998
2 34540  86.3053 269.9177 0014446 241.2226 270.7202 14.77297554902352
IRIDIUM 33 DEB          
1 34648U 97051JZ  26063.50992073  .00010638  00000+0  48804-2 0  9992
2 34648  86.3889 248.8830 0175941  39.5876 321.8002 14.13342933861157
IRIDIUM 33 DEB          
1 34651U 97051KC  26063.53547249  .00009776  00000+0  36418-2 0  9999
2 34651  86.2781 105.7221 0131921 300.5078  58.3142 14.27201856870623
IRIDIUM 33 DEB          
1 34652U 97051KD  26062.69197610  .00004797  00000+0  92811-3 0  9997
2 34652  86.3295 303.9474 0029007  22.9599  32.4891 14.62914267896674
IRIDIUM 33 DEB          
1 34690U 97051KM  26064.30765300  .00002523  00000+0  57517-3 0  9995
2 34690  86.3822   1.0971 0012547  94.2202  59.7281 14.55442423892958
IRIDIUM 33 DEB          
1 34693U 97051KQ  26055.99059176  .01322234  00000+0  68577-2 0  9992
2 34693  86.2833 265.9163 0003939  44.5223 315.6368 15.78525000900614
IRIDIUM 33 DEB          
1 34696U 97051KT  26064.23668309  .00042575  00000+0  65767-2 0  9990
2 34696  86.1828 348.9459 0057466 248.0668 269.7308 14.71990030878830
